start=new Date('2022-08-15T00:00:00.000Z').valueOf();
sats=[{"BSTAR":"-0.00006174200000","MEAN_MOTION_DDOT":"0.0000000000000","NORAD_CAT_ID":"44733","INCLINATION":"53.0528","CENTER_NAME":"EARTH","ELEMENT_SET_NO":"999","SEMIMAJOR_AXIS":"6925.361","TLE_LINE1":"1 44733U 19074W   22226.55217477 -.00001201  00000-0 -61742-4 0  9994","REF_FRAME":"TEME","PERIOD":"95.592","OBJECT_ID":"2019-074W","COUNTRY_CODE":"US","ECCENTRICITY":"0.00014940","GP_ID":"210199177","APOAPSIS":"548.261","REV_AT_EPOCH":"15233","MEAN_ANOMALY":"295.1246","EPOCH":"2022-08-14T13:15:07.900128","OBJECT_TYPE":"PAYLOAD","SITE":"AFETR","DECAY_DATE":null,"MEAN_MOTION":"15.06395877","EPHEMERIS_TYPE":"0","CLASSIFICATION_TYPE":"U","RA_OF_ASC_NODE":"276.6250","FILE":"3536350","ARG_OF_PERICENTER":"64.9898","LAUNCH_DATE":"2019-11-11","RCS_SIZE":"LARGE","TIME_SYSTEM":"UTC","MEAN_ELEMENT_THEORY":"SGP4","TLE_LINE2":"2 44733  53.0528 276.6250 0001494  64.9898 295.1246 15.06395877152330","OBJECT_NAME":"STARLINK-1028","MEAN_MOTION_DOT":"-0.00001201","PERIAPSIS":"546.192"},{"BSTAR":"0.00005283400000","MEAN_MOTION_DDOT":"0.0000000000000","NORAD_CAT_ID":"44734","ELEMENT_SET_NO":"999","SEMIMAJOR_AXIS":"6925.377","INCLINATION":"53.0543","CENTER_NAME":"EARTH","TLE_LINE1":"1 44734U 19074X   22226.36788036  .00000505  00000-0  52834-4 0  9994","PERIOD":"95.593","OBJECT_ID":"2019-074X","REF_FRAME":"TEME","GP_ID":"210197926","COUNTRY_CODE":"US","ECCENTRICITY":"0.00017870","MEAN_ANOMALY":"296.6259","EPOCH":"2022-08-14T08:49:44.863104","APOAPSIS":"548.479","REV_AT_EPOCH":"15340","SITE":"AFETR","OBJECT_TYPE":"PAYLOAD","DECAY_DATE":null,"MEAN_MOTION":"15.06390858","EPHEMERIS_TYPE":"0","RCS_SIZE":"LARGE","LAUNCH_DATE":"2019-11-11","CLASSIFICATION_TYPE":"U","ARG_OF_PERICENTER":"63.4913","FILE":"3536350","RA_OF_ASC_NODE":"197.4663","TIME_SYSTEM":"UTC","PERIAPSIS":"546.004","TLE_LINE2":"2 44734  53.0543 197.4663 0001787  63.4913 296.6259 15.06390858153406","MEAN_ELEMENT_THEORY":"SGP4","OBJECT_NAME":"STARLINK-1029","MEAN_MOTION_DOT":"0.00000505"},{"MEAN_ELEMENT_THEORY":"SGP4","TLE_LINE2":"2 44735  53.0538 296.0030 0001491  72.8896 287.2256 15.06405586152071","OBJECT_NAME":"STARLINK-1030","MEAN_MOTION_DOT":"0.00001881","PERIAPSIS":"546.164","TIME_SYSTEM":"UTC","CLASSIFICATION_TYPE":"U","ARG_OF_PERICENTER":"72.8896","FILE":"3536615","RA_OF_ASC_NODE":"296.0030","LAUNCH_DATE":"2019-11-11","RCS_SIZE":"LARGE","DECAY_DATE":null,"MEAN_MOTION":"15.06405586","EPHEMERIS_TYPE":"0","SITE":"AFETR","OBJECT_TYPE":"PAYLOAD","REV_AT_EPOCH":"15207","APOAPSIS":"548.229","MEAN_ANOMALY":"287.2256","EPOCH":"2022-08-14T16:39:27.887328","COUNTRY_CODE":"US","ECCENTRICITY":"0.00014910","GP_ID":"210229066","REF_FRAME":"TEME","PERIOD":"95.592","OBJECT_ID":"2019-074Y","TLE_LINE1":"1 44735U 19074Y   22226.69407277  .00001881  00000-0  14512-3 0  9994","CENTER_NAME":"EARTH","INCLINATION":"53.0538","ELEMENT_SET_NO":"999","SEMIMAJOR_AXIS":"6925.331","NORAD_CAT_ID":"44735","MEAN_MOTION_DDOT":"0.0000000000000","BSTAR":"0.00014512000000"},{"EPHEMERIS_TYPE":"0","DECAY_DATE":null,"MEAN_MOTION":"15.06396974","OBJECT_TYPE":"PAYLOAD","SITE":"AFETR","OBJECT_NAME":"STARLINK-1031","MEAN_MOTION_DOT":"-0.00000332","TLE_LINE2":"2 44736  53.0549 296.8323 0001316  80.6064 279.5073 15.06396974152056","MEAN_ELEMENT_THEORY":"SGP4","PERIAPSIS":"546.311","TIME_SYSTEM":"UTC","ARG_OF_PERICENTER":"80.6064","FILE":"3536350","RA_OF_ASC_NODE":"296.8323","CLASSIFICATION_TYPE":"U","LAUNCH_DATE":"2019-11-11","RCS_SIZE":"LARGE","INCLINATION":"53.0549","CENTER_NAME":"EARTH","SEMIMAJOR_AXIS":"6925.358","ELEMENT_SET_NO":"999","NORAD_CAT_ID":"44736","MEAN_MOTION_DDOT":"0.0000000000000","BSTAR":"-0.00000341440000","REV_AT_EPOCH":"15205","APOAPSIS":"548.134","EPOCH":"2022-08-14T12:14:06.015840","MEAN_ANOMALY":"279.5073","ECCENTRICITY":"0.00013160","COUNTRY_CODE":"US","GP_ID":"210198428","REF_FRAME":"TEME","OBJECT_ID":"2019-074Z","PERIOD":"95.592","TLE_LINE1":"1 44736U 19074Z   22226.50979185 -.00000332  00000-0 -34144-5 0  9994"},{"PERIAPSIS":"546.265","TLE_LINE2":"2 44737  53.0535 296.7775 0001376  74.4164 285.6977 15.06398726152227","MEAN_ELEMENT_THEORY":"SGP4","OBJECT_NAME":"STARLINK-1032","MEAN_MOTION_DOT":"-0.00001145","TIME_SYSTEM":"UTC","LAUNCH_DATE":"2019-11-11","RCS_SIZE":"LARGE","CLASSIFICATION_TYPE":"U","FILE":"3536474","ARG_OF_PERICENTER":"74.4164","RA_OF_ASC_NODE":"296.7775","MEAN_MOTION":"15.06398726","DECAY_DATE":null,"EPHEMERIS_TYPE":"0","SITE":"AFETR","OBJECT_TYPE":"PAYLOAD","MEAN_ANOMALY":"285.6977","EPOCH":"2022-08-14T12:30:00.891360","REV_AT_EPOCH":"15222","APOAPSIS":"548.170","GP_ID":"210207073","COUNTRY_CODE":"US","ECCENTRICITY":"0.00013760","PERIOD":"95.592","OBJECT_ID":"2019-074AA","REF_FRAME":"TEME","TLE_LINE1":"1 44737U 19074AA  22226.52084365 -.00001145  00000-0 -57973-4 0  9991","ELEMENT_SET_NO":"999","SEMIMAJOR_AXIS":"6925.352","INCLINATION":"53.0535","CENTER_NAME":"EARTH","NORAD_CAT_ID":"44737","MEAN_MOTION_DDOT":"0.0000000000000","BSTAR":"-0.00005797300000"},{"MEAN_ELEMENT_THEORY":"SGP4","TLE_LINE2":"2 44738  53.0542 296.8493 0001521  80.9954 279.1207 15.06401536152043","OBJECT_NAME":"STARLINK-1033","MEAN_MOTION_DOT":"0.00000672","PERIAPSIS":"546.156","TIME_SYSTEM":"UTC","CLASSIFICATION_TYPE":"U","FILE":"3536350","RA_OF_ASC_NODE":"296.8493","ARG_OF_PERICENTER":"80.9954","RCS_SIZE":"LARGE","LAUNCH_DATE":"2019-11-11","DECAY_DATE":null,"MEAN_MOTION":"15.06401536","EPHEMERIS_TYPE":"0","SITE":"AFETR","OBJECT_TYPE":"PAYLOAD","REV_AT_EPOCH":"15204","APOAPSIS":"548.262","MEAN_ANOMALY":"279.1207","EPOCH":"2022-08-14T12:08:46.767840","COUNTRY_CODE":"US","ECCENTRICITY":"0.00015210","GP_ID":"210197428","REF_FRAME":"TEME","PERIOD":"95.592","OBJECT_ID":"2019-074AB","TLE_LINE1":"1 44738U 19074AB  22226.50609685  .00000672  00000-0  64034-4 0  9996","CENTER_NAME":"EARTH","INCLINATION":"53.0542","ELEMENT_SET_NO":"999","SEMIMAJOR_AXIS":"6925.344","NORAD_CAT_ID":"44738","MEAN_MOTION_DDOT":"0.0000000000000","BSTAR":"0.00006403400000"},{"NORAD_CAT_ID":"44739","INCLINATION":"52.9961","CENTER_NAME":"EARTH","ELEMENT_SET_NO":"999","SEMIMAJOR_AXIS":"6894.515","BSTAR":"0.00081608000000","MEAN_MOTION_DDOT":"0.0000000000000","COUNTRY_CODE":"US","ECCENTRICITY":"0.00011550","GP_ID":"210197678","APOAPSIS":"517.176","REV_AT_EPOCH":"15220","MEAN_ANOMALY":"275.4386","EPOCH":"2022-08-14T12:23:56.757696","TLE_LINE1":"1 44739U 19074AC  22226.51662914  .00015822  00000-0  81608-3 0  9990","REF_FRAME":"TEME","PERIOD":"94.954","OBJECT_ID":"2019-074AC","MEAN_MOTION":"15.16516599","DECAY_DATE":null,"EPHEMERIS_TYPE":"0","OBJECT_TYPE":"PAYLOAD","SITE":"AFETR","MEAN_ELEMENT_THEORY":"SGP4","TLE_LINE2":"2 44739  52.9961 282.2818 0001155  84.6738 275.4386 15.16516599152203","OBJECT_NAME":"STARLINK-1034","MEAN_MOTION_DOT":"0.00015822","PERIAPSIS":"515.584","CLASSIFICATION_TYPE":"U","ARG_OF_PERICENTER":"84.6738","FILE":"3536350","RA_OF_ASC_NODE":"282.2818","LAUNCH_DATE":"2019-11-11","RCS_SIZE":"LARGE","TIME_SYSTEM":"UTC"},{"DECAY_DATE":null,"MEAN_MOTION":"15.06392525","EPHEMERIS_TYPE":"0","OBJECT_TYPE":"PAYLOAD","SITE":"AFETR","MEAN_ELEMENT_THEORY":"SGP4","TLE_LINE2":"2 44740  53.0543 295.9063 0001329  66.3107 293.8021 15.06392525152082","MEAN_MOTION_DOT":"0.00000016","OBJECT_NAME":"STARLINK-1035","PERIAPSIS":"546.316","TIME_SYSTEM":"UTC","CLASSIFICATION_TYPE":"U","ARG_OF_PERICENTER":"66.3107","FILE":"3536615","RA_OF_ASC_NODE":"295.9063","LAUNCH_DATE":"2019-11-11","RCS_SIZE":"LARGE","INCLINATION":"53.0543","CENTER_NAME":"EARTH","ELEMENT_SET_NO":"999","SEMIMAJOR_AXIS":"6925.371","NORAD_CAT_ID":"44740","MEAN_MOTION_DDOT":"0.0000000000000","BSTAR":"0.00001998900000","REV_AT_EPOCH":"15208","APOAPSIS":"548.157","MEAN_ANOMALY":"293.8021","EPOCH":"2022-08-14T17:11:19.767264","COUNTRY_CODE":"US","ECCENTRICITY":"0.00013290","GP_ID":"210229816","REF_FRAME":"TEME","PERIOD":"95.593","OBJECT_ID":"2019-074AD","TLE_LINE1":"1 44740U 19074AD  22226.71620101  .00000016  00000-0  19989-4 0  9999"},{"TLE_LINE2":"2 44741  53.0549 296.1448 0001335  86.8707 273.2435 15.06401876152079","MEAN_ELEMENT_THEORY":"SGP4","MEAN_MOTION_DOT":"0.00000057","OBJECT_NAME":"STARLINK-1036","PERIAPSIS":"546.283","CLASSIFICATION_TYPE":"U","FILE":"3536615","RA_OF_ASC_NODE":"296.1448","ARG_OF_PERICENTER":"86.8707","RCS_SIZE":"LARGE","LAUNCH_DATE":"2019-11-11","TIME_SYSTEM":"UTC","MEAN_MOTION":"15.06401876","DECAY_DATE":null,"EPHEMERIS_TYPE":"0","OBJECT_TYPE":"PAYLOAD","SITE":"AFETR","COUNTRY_CODE":"US","ECCENTRICITY":"0.00013350","GP_ID":"210230066","REV_AT_EPOCH":"15207","APOAPSIS":"548.132","MEAN_ANOMALY":"273.2435","EPOCH":"2022-08-14T15:51:41.911200","TLE_LINE1":"1 44741U 19074AE  22226.66090175  .00000057  00000-0  22703-4 0  9999","REF_FRAME":"TEME","PERIOD":"95.592","OBJECT_ID":"2019-074AE","NORAD_CAT_ID":"44741","CENTER_NAME":"EARTH","INCLINATION":"53.0549","ELEMENT_SET_NO":"999","SEMIMAJOR_AXIS":"6925.343","BSTAR":"0.00002270300000","MEAN_MOTION_DDOT":"0.0000000000000"},{"TLE_LINE2":"2 44742  52.9916 276.2535 0000421  24.4314 335.6699 15.17891773152299","MEAN_ELEMENT_THEORY":"SGP4","OBJECT_NAME":"STARLINK-1037","MEAN_MOTION_DOT":"0.00015413","PERIAPSIS":"511.925","TIME_SYSTEM":"UTC","CLASSIFICATION_TYPE":"U","ARG_OF_PERICENTER":"24.4314","FILE":"3536350","RA_OF_ASC_NODE":"276.2535","LAUNCH_DATE":"2019-11-11","RCS_SIZE":"LARGE","MEAN_MOTION":"15.17891773","DECAY_DATE":null,"EPHEMERIS_TYPE":"0","SITE":"AFETR","OBJECT_TYPE":"PAYLOAD","REV_AT_EPOCH":"15229","APOAPSIS":"512.505","MEAN_ANOMALY":"335.6699","EPOCH":"2022-08-14T12:34:51.566016","COUNTRY_CODE":"US","ECCENTRICITY":"0.00004210","GP_ID":"210197927","REF_FRAME":"TEME","PERIOD":"94.868","OBJECT_ID":"2019-074AF","TLE_LINE1":"1 44742U 19074AF  22226.52420794  .00015413  00000-0  76488-3 0  9999","INCLINATION":"52.9916","CENTER_NAME":"EARTH","ELEMENT_SET_NO":"999","SEMIMAJOR_AXIS":"6890.350","NORAD_CAT_ID":"44742","MEAN_MOTION_DDOT":"0.0000000000000","BSTAR":"0.00076488000000"}];
